STARLINK-4610           
1 53610U 22104Y   25004.39030692  .00003383  00000+0  23059-3 0  9995
2 53610  53.2191   1.4424 0001469  91.4146 268.7015 15.08834813130259
STARLINK-4650           
1 53611U 22104Z   25004.32800557  .00066449  00000+0  19513-2 0  9995
2 53611  53.1971 339.9977 0001793 172.1820 187.9212 15.34548005130551
STARLINK-4658           
1 53612U 22104AA  25004.38566468  .00008160  00000+0  53020-3 0  9990
2 53612  53.2199   1.4122 0001456  91.8435 268.2724 15.08839381130252
STARLINK-4655           
1 53613U 22104AB  25004.26053695  .00000546  00000+0  52395-4 0  9996
2 53613  53.2199   2.0520 0001976  85.7931 274.3287 15.08832103130237
STARLINK-4605           
1 53616U 22104AE  25004.18415383  .00000952  00000+0  77901-4 0  9997
2 53616  53.2183 352.1189 0001346  90.1802 269.9344 15.08834877130369
STARLINK-4601           
1 53617U 22104AF  25003.22808455  .00959069  56454-3  87266-3 0  9992
2 53617  53.2077 343.3391 0001173 125.5275 234.5873 16.12039841130396
STARLINK-4604           
1 53618U 22104AG  25004.17221257  .00001187  00000+0  92709-4 0  9997
2 53618  53.2178   2.2143 0001519  78.2168 281.8994 15.08829100130213
STARLINK-4609           
1 53619U 22104AH  25004.17957742  .00000826  00000+0  69967-4 0  9992
2 53619  53.2189   2.2608 0001215  80.4687 279.6443 15.08834900130225
STARLINK-4615           
1 53620U 22104AJ  25004.16483263  .00004366  00000+0  29242-3 0  9999
2 53620  53.2200   2.1700 0001584  93.2363 266.8810 15.08819711130224
STARLINK-4608           
1 53621U 22104AK  25004.30837814  .00005077  00000+0  33696-3 0  9999
2 53621  53.2176   1.6434 0001339  90.4931 269.6215 15.08828154130246
STARLINK-4568           
1 53622U 22104AL  25004.27520117  .00001186  00000+0  92615-4 0  9995
2 53622  53.2177   1.4432 0001529  99.1729 260.9436 15.08841860130244
STARLINK-4573           
1 53623U 22104AM  25004.36722821 -.00008615  00000+0 -52359-3 0  9998
2 53623  53.2183   1.2993 0001045  96.3889 263.7222 15.08857491130253
STARLINK-4596           
1 53624U 22104AN  25004.28993713 -.00014588  00000+0 -89883-3 0  9998
2 53624  53.2186   1.5284 0000618 109.1811 250.9248 15.08903209130240
STARLINK-4554           
1 53626U 22104AQ  25004.27888363  .00001761  00000+0  12874-3 0  9996
2 53626  53.2180   1.4628 0001287  89.9853 270.1286 15.08835685130249
STARLINK-4595           
1 53627U 22104AR  25004.41874136  .00003247  00000+0  22205-3 0  9996
2 53627  53.2181   0.9124 0001058  98.9545 261.1567 15.08826795130266
STARLINK-4600           
1 53628U 22104AS  25004.27151095  .00003554  00000+0  24132-3 0  9995
2 53628  53.2191   1.4161 0001883  99.9238 260.1967 15.08838723130246
STARLINK-4602           
1 53629U 22104AT  25004.28257903  .00003368  00000+0  22968-3 0  9990
2 53629  53.2207   1.4852 0001399  88.9994 271.1159 15.08825798130244
STARLINK-4598           
1 53630U 22104AU  25004.18512766  .00001777  00000+0  12969-3 0  9994
2 53630  53.2196 352.3153 0001238 106.9715 253.1413 15.08839431130364
STARLINK-4599           
1 53631U 22104AV  25004.13535025  .00001670  00000+0  12304-3 0  9998
2 53631  53.2195   1.9901 0001005  85.4369 274.6738 15.08830722130227
STARLINK-4606           
1 53632U 22104AW  25004.37551987 -.00001032  00000+0 -46743-4 0  9999
2 53632  53.2211 351.3726 0001171  91.8067 268.3059 15.08851844130396
STARLINK-4593           
1 53633U 22104AX  25004.24673542 -.00006137  00000+0 -36773-3 0  9990
2 53633  53.2193 351.9926 0001015 110.3876 249.7226 15.08848704130374
STARLINK-4592           
1 53634U 22104AY  25004.16944111  .00000150  00000+0  27500-4 0  9991
2 53634  53.2198 352.2177 0001402  79.8815 280.2335 15.08841684130364
STARLINK-4587           
1 53635U 22104AZ  25004.37183197 -.00009408  00000+0 -57311-3 0  9993
2 53635  53.2208 351.3489 0002056 102.5241 257.5981 15.08881252130398
STARLINK-4586           
1 53636U 22104BA  25004.55951932  .00030359  00000+0  19154-2 0  9993
2 53636  53.2187 350.3895 0001136  71.0623 289.0492 15.08878315130424
STARLINK-4396           
1 53637U 22104BB  25004.12997216  .00002230  00000+0  15829-3 0  9995
2 53637  53.2203 352.6747 0001621  92.4250 267.6927 15.08813843130359
STARLINK-4594           
1 53638U 22104BC  25004.27613894  .00001206  00000+0  93877-4 0  9991
2 53638  53.2188 351.4627 0001417  76.4528 283.6622 15.08827043130389
STARLINK-4422           
1 53639U 22104BD  25004.35710811  .00005462  00000+0  36121-3 0  9994
2 53639  53.2185 351.2544 0001252  74.8701 285.2430 15.08815688130393
STARLINK-4597           
1 53640U 22104BE  25004.22093179  .00003114  00000+0  21371-3 0  9996
2 53640  53.2180 351.8266 0001415  89.4697 270.6457 15.08829674130379
STARLINK-4588           
1 53641U 22104BF  25004.16574380  .00001258  00000+0  97105-4 0  9994
2 53641  53.2181 352.1916 0000926  61.5474 298.5611 15.08847555130365
STARLINK-4622           
1 53648U 22105A   25004.13709966  .00002601  00000+0  20705-3 0  9993
2 53648  97.6536 248.1078 0004560  58.0305 302.1362 15.01244898129089
STARLINK-4386           
1 53649U 22105B   25004.40184722 -.00005736  00000+0 -44201-3 0  9992
2 53649  97.6529 248.3677 0004450  55.3194 304.8449 15.01281834129102
STARLINK-4380           
1 53650U 22105C   25004.40001146  .00006804  00000+0  53355-3 0  9997
2 53650  97.6508 248.3658 0004403  56.9271 303.2376 15.01274496129109
STARLINK-4388           
1 53651U 22105D   25004.13155014  .00010384  00000+0  81184-3 0  9991
2 53651  97.6519 248.0970 0003864  51.2801 308.8769 15.01255350129063
STARLINK-4374           
1 53652U 22105E   25004.12969667 -.00008288  00000+0 -64075-3 0  9990
2 53652  97.6523 248.0908 0004013  31.6896 328.4569 15.01294186129069
STARLINK-4390           
1 53653U 22105F   25004.41482060  .00001857  00000+0  14916-3 0  9992
2 53653  97.6548 248.3357 0003028  87.7867 272.3704 15.01257909129108
STARLINK-4420           
1 53654U 22105G   25003.92418100  .00001291  00000+0  10514-3 0  9994
2 53654  97.6540 247.8842 0002240  50.9384 309.2039 15.01254188128752
STARLINK-4470           
1 53655U 22105H   25004.39444466  .00001925  00000+0  15444-3 0  9992
2 53655  97.6539 248.3496 0003313  39.1046 321.0417 15.01260350129108
STARLINK-4466           
1 53656U 22105J   25004.25187628 -.00008729  00000+0 -67555-3 0  9993
2 53656  97.6543 248.2114 0001294  88.1403 271.9969 15.01275798129081
STARLINK-4469           
1 53657U 22105K   25004.39261037  .00002296  00000+0  18341-3 0  9996
2 53657  97.6548 248.3458 0002630  50.3274 309.8182 15.01235650129105
STARLINK-4452           
1 53658U 22105L   25003.92047737  .00000684  00000+0  57861-4 0  9994
2 53658  97.6540 247.8791 0002091  84.4894 275.6568 15.01250187128759
STARLINK-4463           
1 53659U 22105M   25004.12253087  .00000827  00000+0  68973-4 0  9990
2 53659  97.6545 248.0784 0001989  81.2443 278.9006 15.01255490129060
STARLINK-4473           
1 53660U 22105N   25004.11487908 -.00008026  00000+0 -62040-3 0  9991
2 53660  97.6533 248.0703 0001324  71.0533 289.0834 15.01295289129062
STARLINK-4472           
1 53661U 22105P   25004.11697610  .00000923  00000+0  76489-4 0  9994
2 53661  97.6542 248.0761 0001799  88.4608 271.6822 15.01252490129069
STARLINK-4357           
1 53662U 22105Q   25004.17807245  .00000565  00000+0  48561-4 0  9990
2 53662  97.6548 248.1305 0001219  85.8952 274.2411 15.01255888129079
STARLINK-4457           
1 53663U 22105R   25004.25003404  .00001562  00000+0  12616-3 0  9994
2 53663  97.6552 248.2032 0001448  88.0368 272.1022 15.01255144129084
STARLINK-4471           
1 53664U 22105S   25004.24111259  .00216631  00000+0  16484-1 0  9992
2 53664  97.6541 248.1983 0002228  73.6369 286.5100 15.00967196129087
STARLINK-4334           
1 53665U 22105T   25003.90937235  .00002110  00000+0  16889-3 0  9991
2 53665  97.6542 247.8745 0001792 106.8153 253.3268 15.01247236128753
STARLINK-4449           
1 53666U 22105U   25004.23707447  .00001200  00000+0  98051-4 0  9990
2 53666  97.6553 248.1971 0001525 166.5841 193.5424 15.01250182129082
STARLINK-4406           
1 53667U 22105V   25004.37962565 -.00007988  00000+0 -61764-3 0  9991
2 53667  97.6544 248.3313 0001599  86.2227 273.9180 15.01281823129103
STARLINK-4458           
1 53668U 22105W   25004.17227383  .00002466  00000+0  19661-3 0  9995
2 53668  97.6549 248.0987 0001395  79.0406 281.0975 15.01248431129072
STARLINK-4464           
1 53669U 22105X   25004.24447983  .00001773  00000+0  14266-3 0  9990
2 53669  97.6555 248.1880 0001754  94.3159 265.8266 15.01249521129082
STARLINK-4459           
1 53670U 22105Y   25004.25001157 -.00036201  00000+0 -28259-2 0  9994
2 53670  97.6549 248.2033 0001516  95.0370 344.9557 15.01292649129088
STARLINK-4440           
1 53671U 22105Z   25004.58334491  .00019360  00000+0  15078-2 0  9991
2 53671  97.6549 248.5363 0001767  80.6631 358.4208 15.01257992129137
STARLINK-4428           
1 53672U 22105AA  25004.15560971 -.00001351  00000+0 -10060-3 0  9999
2 53672  97.6583 248.1440 0002763  92.2622 267.8919 15.01265060129074
STARLINK-4456           
1 53673U 22105AB  25004.39283867  .00000444  00000+0  39168-4 0  9993
2 53673  97.6532 248.3460 0002462  15.7730 344.3570 15.01245158129103
STARLINK-4620           
1 53674U 22105AC  25003.62980344 -.00000817  00000+0 -59007-4 0  9993
2 53674  97.6563 247.5940 0001864  85.2589 274.8848 15.01252674128713
STARLINK-4617           
1 53675U 22105AD  25004.42406665  .00002356  00000+0  18799-3 0  9992
2 53675  97.6567 248.4061 0002010  81.7056 278.4396 15.01259626129113
STARLINK-4621           
1 53676U 22105AE  25004.22597018  .00021586  00000+0  16847-2 0  9991
2 53676  97.6555 248.1910 0001376  89.5768 270.5614 15.01154234129082
STARLINK-4579           
1 53677U 22105AF  25004.25001157 -.00037576  00000+0 -29336-2 0  9994
2 53677  97.6549 248.2040 0001909  96.4738   3.5155 15.01297217129080
